#dP2022  3  6  0  0  0.00000000      96 __u+U ITR00 FIT  IAC
## 2200      0.00000000   900.00000000 59644 0.0000000000000
+  117   C06C07C08C09C10C11C12C13C14C16C19C20C21C22C23C24C25
+        C26C27C28C29C30C32C33C34C35C36C37C38C39C40C41C42C43
+        C44C45C46E01E02E03E04E05E07E08E09E10E11E12E13E14E15
+        E18E19E21E25E26E27E30E31E33E34E36G01G02G03G04G05G06
+        G07G08G09G10G11G12G13G14G15G16G17G18G19G20G21G22G23
+        G24G25G26G27G28G29G30G31G32J01J02J03R01R02R03R04R05
+        R07R08R09R11R12R13R14R15R17R18R19R20R21R22R24  0  0
++         9  9  7  9  7  7  6  8  7  9  7  8  7  7  7  5  7
++         6  9  9  8  7  9  7  7  7  5  7  8  9  9  7  7  9
++         6  7  6  7  7  5  5  4  5  6  7  6  6  6  6  5  5
++         7  5  6  7  5  6  6  6  5  6  6  5  5  6  5  6  5
++         6  5  4  5  4  6  6  5  7  7  6  7  5  6  7  6  5
++         5  5  5  5  5  6  6  5  4 11  8  7  7  7  5  6  7
++         5  5  6  6  7  6  8  6  8  6  7  6  7  6  6  0  0
%c M  cc GPS ccc cccc cccc cccc cccc ccccc ccccc ccccc ccccc
%c cc cc ccc ccc cccc cccc cccc cccc ccccc ccccc ccccc ccccc
%f  0.0000000  0.000000000  0.00000000000  0.000000000000000
%f  0.0000000  0.000000000  0.00000000000  0.000000000000000
%i    0    0    0    0      0      0      0      0         0
%i    0    0    0    0      0      0      0      0         0
/* INFORMATION & ANALYSIS CENTER (IAC)      ULTRA-RAPID DATA
/* S/V CLOCKS ARE ALIGNED TO GNSS TIME                      
/* G:C1WC2W R:C1PC2P E:C1XC5X C:C2IC6I J:C1CC2S             
/* PCV:IGS14_2196 OL/AL:FES2004  NONE     YN ORB:CoN CLK:CoN
*  2022 03 06  4 30  0.00000000
PC06 -17622.866331  36817.699228  10110.292918   -441.664383
PC07  -3314.795840  34284.353130  24399.356101    170.679032
PC08 -12151.099900  19527.667542 -35343.535204    177.886113
PC09  -9676.189454  35589.491017  20323.700036   -579.205012
PC10   3532.615160  37531.215007  19595.533747    139.287804
PC11 -10962.652782 -10924.213928  23285.426611   -169.096602
PC12   3946.121672 -23089.315277  15200.245758    682.164870
PC13  -2453.136574  22242.027872 -35616.746741    -98.033751
PC14 -16994.874765 -20039.499166  -9291.825023    451.869298
PC16 -18187.951262  36788.551683   9202.424573     96.306789
PC19  18793.471339  11670.165304  17051.252634    889.296003
PC20  13410.250752  24419.947485   1872.966840   -838.533370
PC21    469.202825 -23249.500168  15433.185847   -926.564285
PC22  13534.475838  -8302.321626  22953.491090   -959.485790
PC23 -24500.698399   6554.048143  11644.849480   -948.233850
PC24 -12554.180354 -15196.908591 -19780.294403   -945.351037
PC25 -27018.258629  -4943.254397  -5011.682917   -770.049058
PC26   6714.604699 -15570.160307 -22172.313914    770.163862
PC27 -10968.898818  24587.830805  -7318.722459    687.457334
PC28 -20039.767136  16619.119209  10049.852078     40.169360
PC29  17415.880557    818.010460 -21796.722306    523.786246
PC30   4665.458210  18667.904716 -20206.644861    494.624448
PC32   -283.921657  23254.673041 -15409.862076   -971.462682
PC33 -18854.090184 -11632.258714 -16950.029242   -962.714354
PC34  -5415.911716 -18039.400386  20590.999369   -454.718342
PC35  19648.023265 -16697.600845 -10728.838047    169.040467
PC36  26718.257077   5893.186855   5490.863288   -929.998836
PC37  -8398.913470  15127.929141  21906.513538   -947.593215
PC38 -19349.857437  20120.034111 -31603.359424    215.953172
PC39 -20835.191511  36504.672437   1695.244819     34.858561
PC40  -6043.951643  30853.697610  28146.641746    249.869235
PC41 -13743.698240   7920.000036 -22903.934145   -949.535442
PC42 -12832.792547 -24754.938187   -821.271626   -935.453826
PC43 -17186.725088  -1667.775370  21909.316245   -937.817907
PC44  10261.213824 -24993.671408   7054.287381    585.606973
PC45  24329.901261  -6671.989812 -11906.336330    697.277632
PC46  13977.031892  14694.467835  19147.895039   -202.515796
PE01  24645.221669   3175.129363 -16079.902270   -591.331974
PE02 -24604.973191  -3070.452925  16175.341767    284.401869
PE03 -16966.991652   5691.360158 -23578.935447   -534.415703
PE04  10594.857754 -24338.575443  13108.232073   -978.414907
PE05 -13487.671504 -16683.795996 -20390.517872   -203.052278
PE07   2220.249691  29023.962687   5398.437771   -645.485065
PE08 -10208.381151  24648.667901 -12828.383079   -490.355016
PE09  -2438.209099 -28951.785280  -5624.672137   5338.315300
PE10  11840.599957 -19718.614657  18630.904206   -498.885137
PE11    888.717305 -17759.910183  23663.897792   4301.080936
PE12  20443.574534 -18458.474569  10876.435288   4727.702032
PE13  -1583.386947  17911.064423 -23502.683432    427.056270
PE14   1999.450697 -23857.175793   4699.535548  -1768.183830
PE15 -20504.494446  18429.509593 -10750.027248    759.492102
PE18   5986.194726  27454.455927 -15599.774269  -1717.577680
PE19  16973.682446  -2822.978937  24092.823967   -841.781595
PE21  24523.381065  16557.332511    584.810928   -720.881428
PE25 -24428.091694 -16706.497325   -845.290792   -565.810893
PE26  18985.780873   6325.362708 -21804.612210   -879.419261
PE27  10264.158977  21251.070211  17854.300162   -246.726041
PE30 -11019.612991  12666.162106  24365.052827   -325.605218
PE31   9891.810424 -13408.210459 -24463.200967   -493.114535
PE33  27252.576294  -8093.758288  -8262.746238   -458.836984
PE34 -27246.849395   8278.361143   8077.435248   -505.238730
PE36 -18119.993248  -6892.272678  22370.503007   -341.292760
PG01     30.447619  15290.973829 -21954.650200    415.801724
PG02  19516.327180 -15792.958597   9529.589925   -651.880146
PG03   9247.211709  20642.390612 -14113.528527   -150.586149
PG04    237.564638  25203.485240   8247.698147   -185.560117
PG05   6098.312322 -14278.135120  21372.774522    -73.670791
PG06  25525.882446  -4944.818620  -5556.289687    221.973212
PG07  16865.463805   8664.413490  19174.948060    314.441240
PG08  -5938.453662  25581.082058   2341.846913    -58.719419
PG09   8895.273553  18515.492481  16750.616015   -351.219738
PG10 -22443.023172  -9674.264905 -10608.908237   -338.535629
PG11  21588.355376 -12671.846939   8859.926450    -69.879404
PG12  -4898.127955 -20638.731120 -16331.175361   -180.597751
PG13  13146.345639 -21349.210264   8359.950176    272.154142
PG14  22111.102776  10779.767987 -10116.936947    -90.967476
PG15   2536.485980 -26212.162514   1241.019065    -78.967181
PG16 -11070.326768   9976.988315  21718.187995   -477.309418
PG17  14295.744288   2996.378265 -21754.142948    583.517852
PG18 -16455.389852  -8368.066305  19129.641194    226.276801
PG19  16088.365355  -5022.711455 -20739.919691    127.291689
PG20  14633.808685  -8432.983781  20446.485259    516.424974
PG21 -10487.413778  17155.251897 -16342.492260    159.008192
PG22 -16026.825890   8822.181494 -18785.263050    223.182436
PG23 -20728.953832 -16689.637273   -180.949205     -4.370173
PG24   3586.235080 -17546.585088 -19787.318485    270.415899
PG25 -16477.289837 -20065.226690  -6548.327354    294.412354
PG26 -19958.492720    867.640723  17565.472074    188.504137
PG27 -12293.451844  19629.442067  12429.296506    144.084469
PG28  19867.682308   4331.598494 -16446.298872    386.682216
PG29  -5461.159613 -20539.895269  15847.321118   -487.961100
PG30  23002.822793   2711.855889  13287.491192   -517.119056
PG31 -25946.887228   6043.697190  -3179.018663   -167.646861
PG32 -15516.395510   1541.598511 -21344.114045    -79.370403
PJ01 -20879.340851  25792.285463 -21483.946655    214.167182
PJ02 -27554.891930  20687.073965  29269.509099     -1.770946
PJ03 -33980.405435  24926.067731   7337.953119     -0.833259
PR01 -12669.367483  -7244.477258 -20912.305701      7.185334
PR02  -6458.304287  13439.191507 -20632.138724    511.631894
PR03   2963.662501  24156.822019  -7496.708518     52.608057
PR04  10407.959128  21218.399808   9616.734969    130.610961
PR05  12147.535839   6602.406902  21444.707034     88.858375
PR07  -3277.735844 -24368.757976   6922.386531     32.342627
PR08 -10502.254105 -21178.158721  -9558.813956    -63.883948
PR09  16335.466294  -5635.499759 -18780.023012     42.847919
PR11 -18108.570997 -11223.135054 -14014.378122     44.225304
PR12 -24834.922843  -4343.058091   3975.435081     17.359800
PR13 -17200.701320   4804.348998  18193.594020    -19.087341
PR14   1651.047746  11707.267750  22608.602419     75.083774
PR15  18519.722748  11367.828137  13369.818585     97.743627
PR17  -9243.534565  18722.796689 -14663.843178    507.184478
PR18   4717.831229   9854.362840 -23027.998431    109.391789
PR19  15766.496895  -2740.518930 -19862.805858   -180.528989
PR20  19350.596805 -16417.743256  -2822.034907    -66.170489
PR21   8224.154091 -18224.142404  15830.927121   -283.054616
PR22  -5251.682423  -9298.736035  23160.136532   -168.769786
PR24 -18834.572551  17076.037836   2141.927431     83.094062
EOF
